MALLIGYONG-1            
1 58400U 23179A   24072.92935318  .00005199  00000+0  23477-3 0  9993
2 58400  97.4171 321.2158 0008076 233.3337 126.7157 15.21383994 17085
